OBJECT_NAME,OBJECT_ID,EPOCH,MEAN_MOTION,ECCENTRICITY,INCLINATION,RA_OF_ASC_NODE,ARG_OF_PERICENTER,MEAN_ANOMALY,EPHEMERIS_TYPE,CLASSIFICATION_TYPE,NORAD_CAT_ID,ELEMENT_SET_NO,REV_AT_EPOCH,BSTAR,MEAN_MOTION_DOT,MEAN_MOTION_DDOT
SITRO-AIS 8 (ANOKHIN),2023-091AD,2026-06-16T04:08:55.491936,15.32113817,.0011804,97.5058,232.6469,103.0381,257.2178,0,U,57193,999,16429,.38769E-3,.11972E-3,0
SITRO-AIS 7 (FARTUSHNIY),2023-091AE,2026-06-16T04:46:44.145984,15.25607216,.0012945,97.5067,230.0387,110.3686,249.8944,0,U,57194,999,16412,.32685E-3,.8253E-4,0
AVION KALUGA 650,2023-091AF,2026-06-16T04:11:55.241088,15.20343919,.0011883,97.5090,226.7555,112.3017,247.9479,0,U,57195,999,16387,.24044E-3,.517E-4,0
HORS 2,2023-091AG,2026-06-16T04:25:31.787616,15.31871974,.0009407,97.5091,234.2002,90.8173,269.4146,0,U,57196,999,16437,.37233E-3,.11398E-3,0
A-SEANSAT-PG1,2023-091AH,2026-06-16T03:57:18.872928,15.36931825,.0008327,97.5084,236.7241,88.1279,272.0918,0,U,57197,999,16455,.41637E-3,.14981E-3,0
SITRO-AIS 10 (BURDAEV),2023-091AK,2026-06-16T03:26:50.373312,15.38579425,.0007589,97.5085,237.6607,83.4582,276.7527,0,U,57199,999,16460,.44953E-3,.17071E-3,0
SITRO-AIS 9 (SHCHUKIN),2023-091AM,2026-06-16T04:04:22.570752,15.38089424,.0007826,97.5083,237.4181,83.4586,276.7549,0,U,57201,999,16459,.4282E-3,.15998E-3,0
UTMN 2 (RS27S),2023-091AP,2026-06-16T03:30:49.468032,15.32031789,.0009311,97.5090,234.3528,86.9005,273.3302,0,U,57203,999,16438,.37127E-3,.11422E-3,0
SITRO-AIS 12 (SMIRENNIY),2023-091AQ,2026-06-16T03:51:09.004896,15.38383183,.0007365,97.5096,237.8752,78.6390,281.5682,0,U,57204,999,16461,.45854E-3,.17303E-3,0
SITRO-AIS 11 (SHEFFER),2023-091AU,2026-06-16T04:10:52.462848,15.38806775,.0007244,97.5094,238.1352,78.4385,281.7673,0,U,57208,999,16463,.42552E-3,.16271E-3,0
H2SAT (HEINRICH HERTZ),2023-093A,2026-06-14T16:22:38.496000,1.00272092,.00008601,0.0576,110.9536,82.8758,315.5159,0,U,57213,999,1089,0,.9E-7,0
KUZGTU 1 (RS47S),2023-091AV,2026-06-16T02:50:29.703840,15.29842808,.0012337,97.5066,231.5874,101.3117,258.9510,0,U,57217,999,16421,.36421E-3,.10475E-3,0
QIANKUN-1,2023-103B,2026-06-15T08:46:25.019040,16.08420909,.00293788,96.1468,211.3446,145.9035,214.4147,0,U,57422,999,16700,.23232943E-4,.20233E-3,.1838074E-5
FENGYUN 3F,2023-111A,2026-06-16T04:46:42.265056,14.19938936,.0001586,98.6835,237.2262,94.2929,265.8428,0,U,57490,999,14872,.36636E-4,.34E-6,0
HJ-2F,2023-116A,2026-06-16T04:49:05.459232,15.22308960,.0009937,97.3837,172.4364,55.1070,305.1099,0,U,57519,999,15860,.27008E-3,.6162E-4,0
XRISM,2023-137A,2026-06-15T22:28:55.048800,15.12457150,.0007959,31.0032,7.7018,311.4201,48.5754,0,U,57800,999,15267,.2459E-3,.4483E-4,0
METEOR-M2 4,2024-039A,2026-06-16T04:46:02.897760,14.22429426,.0007227,98.7010,126.5091,163.7378,196.4033,0,U,59051,999,11912,.1777E-4,-.4E-7,0
GRBBETA,2024-128C,2026-06-15T11:52:01.565184,15.06630585,.00408509,61.9889,222.2055,134.3380,226.1074,0,U,60237,999,10601,.20649176E-3,.2913E-4,0
TRANSPORTER-11 OBJECT A,2024-149A,2026-06-16T04:11:01.836384,15.32892502,.0002703,97.3735,247.1069,197.3235,162.7915,0,U,60468,999,10190,.22919E-3,.7203E-4,0
WARATAH SEED-1,2024-149B,2026-06-16T04:46:33.960288,15.35925410,.0001445,97.3694,247.7723,181.0659,179.0582,0,U,60469,999,10196,.30623E-3,.10631E-3,0
PHISAT 2,2024-149C,2026-06-16T04:44:37.747104,15.31056953,.000092,97.3760,246.4188,173.6199,186.5054,0,U,60470,999,10184,.27193E-3,.8083E-4,0
LEMUR-2-TOMATOKECHUP,2024-149D,2026-06-16T04:41:13.746336,15.36017182,.0001325,97.3806,249.2391,177.5329,182.5921,0,U,60471,999,10201,.26406E-3,.9181E-4,0
CONNECTA IOT-1,2024-149E,2026-06-16T04:13:55.523712,15.23534126,.0000343,97.3761,243.4846,306.6392,53.4814,0,U,60472,999,10164,.14791E-3,.3463E-4,0
LOPEN,2024-149F,2026-06-16T03:43:54.820704,15.39663588,.0000727,97.3783,250.5149,185.5450,174.5788,0,U,60473,999,10210,.3285E-3,.12885E-3,0
ROCK,2024-149G,2026-06-16T04:58:09.676416,15.39660023,.0001021,97.3780,250.5827,194.2356,165.8861,0,U,60474,999,10211,.31321E-3,.12279E-3,0
CONNECTA IOT-3,2024-149H,2026-06-16T04:44:43.072800,15.23546358,.0001355,97.3736,243.2590,259.7881,100.3203,0,U,60475,999,10165,.14255E-3,.3336E-4,0
QUBE,2024-149J,2026-06-16T04:52:46.227648,15.47152637,.0001864,97.3784,253.6177,197.3639,162.7548,0,U,60476,999,10231,.4131E-3,.20901E-3,0
WREN-1,2024-149L,2026-06-16T03:51:19.433376,15.41522213,.000318,97.3768,251.2619,253.3266,106.7632,0,U,60478,999,10216,.41049E-3,.17154E-3,0
TOMORROW-S1,2024-149M,2026-06-15T23:04:10.412832,15.32706964,.0001419,97.3753,247.4370,218.1887,141.9255,0,U,60479,999,10190,.2138E-3,.6674E-4,0
